[{"OBJECT_NAME":"STARLINK-35162","OBJECT_ID":"2025-207X","EPOCH":"2026-03-09T18:12:30.791808","MEAN_MOTION":15.05656295,"ECCENTRICITY":6.095e-5,"INCLINATION":97.6012,"RA_OF_ASC_NODE":138.7609,"ARG_OF_PERICENTER":68.3551,"MEAN_ANOMALY":291.774,"EPHEMERIS_TYPE":0,"CLASSIFICATION_TYPE":"U","NORAD_CAT_ID":65613,"ELEMENT_SET_NO":999,"REV_AT_EPOCH":2827,"BSTAR":1.0832951e-5,"MEAN_MOTION_DOT":9.6e-7,"MEAN_MOTION_DDOT":0},{"OBJECT_NAME":"CZ-6A R\/B","OBJECT_ID":"2022-031C","EPOCH":"2026-03-09T19:50:55.360896","MEAN_MOTION":15.07476837,"ECCENTRICITY":0.00174842,"INCLINATION":97.8104,"RA_OF_ASC_NODE":273.2347,"ARG_OF_PERICENTER":181.6412,"MEAN_ANOMALY":178.4761,"EPHEMERIS_TYPE":0,"CLASSIFICATION_TYPE":"U","NORAD_CAT_ID":52152,"ELEMENT_SET_NO":999,"REV_AT_EPOCH":21633,"BSTAR":0.00020233161,"MEAN_MOTION_DOT":3.012e-5,"MEAN_MOTION_DDOT":0}]
